CAS-2T & KS-1Q          
1 41847U 16066G   20181.66127519  .00000040  00000-0  16486-4 0  9995
2 41847  98.6528 232.3017 0365488 192.3805 166.8218 14.38073886191173
NAYIF-1 (EO-88)         
1 42017U 17008BX  20181.67603294  .00000947  00000-0  39006-4 0  9991
2 42017  97.3593 249.0600 0004450 281.7967  78.2772 15.26527284187412
MAX VALIER SAT          
1 42778U 17036P   20181.10581609  .00000590  00000-0  28290-4 0  9996
2 42778  97.3039 234.4192 0011658 350.0138  10.0865 15.22638991167502
RADFXSAT (FOX-1B)       
1 43017U 17073E   20181.02651870  .00000536  00000-0  46969-4 0  9996
2 43017  97.7227  92.8152 0257417  13.0126 347.7562 14.78952467140874
FOX-1D (AO-92)          
1 43137U 18004AC  20181.17037217  .00000623  00000-0  28549-4 0  9994
2 43137  97.4452 252.2520 0009692  24.8782 335.2920 15.24143192136833
DIWATA-2B               
1 43678U 18084H   20181.75024199 -.00000138  00000-0 -80384-5 0  9990
2 43678  97.8866 300.1541 0010929 131.5914 228.6248 14.91633333 90853
ES'HAIL 2               
1 43700U 18090A   20181.16855228  .00000141  00000-0  00000+0 0  9996
2 43700   0.0133 315.7205 0001318 164.9337 243.5127  1.00271519  6075
FOX-1CLIFF (AO-95)      
1 43770U 18099N   20181.15465556  .00000506  00000-0  51389-4 0  9998
2 43770  97.7054 252.3313 0015369 152.6478 207.5555 14.94998036 85668
ITASAT 1                
1 43786U 18099AE  20181.14893498  .00000600  00000-0  59468-4 0  9995
2 43786  97.7069 252.7535 0016184 146.9439 213.2797 14.95335297 85689
JY1SAT (JO-97)          
1 43803U 18099AX  20181.16207915  .00000297  00000-0  31951-4 0  9999
2 43803  97.7031 252.5826 0016064 146.9928 213.2299 14.95515296 85685
PSAT2 (NO-104)          
1 44354U 19036R   20181.67095936  .00006421  00000-0  90939-4 0  9993
2 44354  28.5295 300.3597 0364255  81.5117 282.6577 15.03586823 55657
BRICSAT2 (NO-103)       
1 44355U 19036S   20181.63516096  .00012495  00000-0  17206-3 0  9998
2 44355  28.5291 291.2762 0342728  96.2608 267.7129 15.09041993 55742
JAISAT-1                
1 44419U 19038F   20181.13069155  .00000523  00000-0  33374-4 0  9999
2 44419  97.5393 142.5896 0023328  90.2819 270.1085 15.12795558 54361
DUCHIFAT-3              
1 44854U 19089C   20181.88354727  .00000132  00000-0  17122-4 0  9991
2 44854  36.9687  24.8935 0007286 174.0253 186.0568 14.99074980 30167
RS-44 & BREEZE-KM R/B   
1 44909U 19096E   20181.16401974  .00000031  00000-0  78581-4 0  9992
2 44909  82.5213 347.5302 0217066 198.8571 160.4401 12.79708048 23685
ORBITAL FACTORY 2 (OF-2)
1 45113U 19071C   20181.08498503  .00001214  00000-0  48579-4 0  9996
2 45113  51.6447 307.3586 0013577  99.6483 260.6034 15.33389540 22913
HUSKYSAT-1              
1 45119U 19071J   20181.71338429  .00000732  00000-0  33709-4 0  9995
2 45119  51.6446 304.0550 0012844  98.3269 261.9170 15.33604871 23000
